H1 CPF  1  MCC 2022  5 11 10  6311 larets
H2  0304206 5557    27944 2022 05 10 23 45 00 2022 05 15 23 57 00   180 1 1  0 0 0
H9
10 0 59711  4860.000000 0      6332158.449      1636494.764     -2664562.407
10 0 59711  5040.000000 0      6770597.813      1442101.531     -1384726.719
10 0 59711  5220.000000 0      6956256.230      1186933.111       -54044.916
10 0 59711  5400.000000 0      6880635.925       886981.757      1278615.780
10 0 59711  5580.000000 0      6545333.611       560009.026      2564204.422
10 0 59711  5760.000000 0      5962044.133       224619.963      3755363.902
10 0 59711  5940.000000 0      5152125.571      -100694.171      4808240.349
10 0 59711  6120.000000 0      4145757.846      -398489.213      5684138.532
10 0 59711  6300.000000 0      2980741.429      -653232.423      6350957.297
10 0 59711  6480.000000 0      1701003.067      -852050.956      6784348.049
10 0 59711  6660.000000 0       354883.363      -985335.202      6968572.504
10 0 59711  6840.000000 0     -1006729.678     -1047173.475      6897037.669
10 0 59711  7020.000000 0     -2332343.233     -1035601.482      6572499.553
10 0 59711  7200.000000 0     -3571811.774      -952658.103      6006944.976
10 0 59711  7380.000000 0     -4678243.655      -804247.813      5221161.147
10 0 59711  7560.000000 0     -5609803.323      -599818.876      4243991.031
10 0 59711  7740.000000 0     -6331331.321      -351867.470      3111286.291
10 0 59711  7920.000000 0     -6815712.533       -75288.845      1864595.330
10 0 59711  8100.000000 0     -7044938.480       213395.322       549627.328
10 0 59711  8280.000000 0     -7010803.091       496893.416      -785457.254
10 0 59711  8460.000000 0     -6715191.493       758041.322     -2091852.188
10 0 59711  8640.000000 0     -6169952.835       980693.057     -3321921.660
10 0 59711  8820.000000 0     -5396372.963      1150560.251     -4430955.956
10 0 59711  9000.000000 0     -4424269.637      1255957.098     -5378786.094
10 0 59711  9180.000000 0     -3290776.337      1288415.046     -6131193.330
10 0 59711  9360.000000 0     -2038881.946      1243141.510     -6661077.043
10 0 59711  9540.000000 0      -715790.831      1119308.064     -6949358.548
10 0 59711  9720.000000 0       628833.898       920160.853     -6985605.062
10 0 59711  9900.000000 0      1944683.755       652949.580     -6768379.235
10 0 59711 10080.000000 0      3182640.061       328675.549     -6305310.758
10 0 59711 10260.000000 0      4296575.609       -38335.837     -5612873.347
10 0 59711 10440.000000 0      5245066.798      -431028.122     -4715871.567
10 0 59711 10620.000000 0      5992968.666      -830354.798     -3646638.626
10 0 59711 10800.000000 0      6512787.766     -1216144.491     -2443942.983
10 0 59711 10980.000000 0      6785785.409     -1568056.302     -1151626.890
10 0 59711 11160.000000 0      6802748.408     -1866579.671       182987.262
10 0 59711 11340.000000 0      6564374.704     -2094027.372      1510862.734
10 0 59711 11520.000000 0      6081240.681     -2235467.910      2783112.242
10 0 59711 11700.000000 0      5373342.555     -2279543.916      3952870.492
10 0 59711 11880.000000 0      4469233.495     -2219128.936      4977081.360
10 0 59711 12060.000000 0      3404813.763     -2051789.026      5818117.298
10 0 59711 12240.000000 0      2221836.009     -1780028.857      6445171.915
10 0 59711 12420.000000 0       966202.277     -1411311.329      6835367.671
10 0 59711 12600.000000 0      -313864.185      -957853.674      6974555.360
10 0 59711 12780.000000 0     -1569697.964      -436207.984      6857788.387
10 0 59711 12960.000000 0     -2754050.380       133355.476      6489471.695
10 0 59711 13140.000000 0     -3822871.313       727642.190      5883190.432
10 0 59711 13320.000000 0     -4736960.907      1321476.460      5061221.240
10 0 59711 13500.000000 0     -5463434.629      1888760.569      4053731.545
10 0 59711 13680.000000 0     -5976941.523      2403610.440      2897684.064
10 0 59711 13860.000000 0     -6260582.636      2841517.098      1635481.593
10 0 59711 14040.000000 0     -6306492.214      3180481.314       313396.066
10 0 59711 14220.000000 0     -6116045.576      3402063.659     -1020163.043
10 0 59711 14400.000000 0     -5699682.261      3492293.353     -2316461.312
10 0 59711 14580.000000 0     -5076356.485      3442391.063     -3528256.046
10 0 59711 14760.000000 0     -4272643.612      3249268.127     -4611531.938
10 0 59711 14940.000000 0     -3321561.887      2915782.331     -5527079.504
10 0 59711 15120.000000 0     -2261180.196      2450746.285     -6241861.796
10 0 59711 15300.000000 0     -1133080.724      1868696.346     -6730138.811
10 0 59711 15480.000000 0        19263.280      1189432.227     -6974322.837
10 0 59711 15660.000000 0      1152127.717       437350.020     -6965555.624
10 0 59711 15840.000000 0      2223153.157      -359411.080     -6704010.842
10 0 59711 16020.000000 0      3192893.214     -1169990.233     -6198908.547
10 0 59711 16200.000000 0      4026248.270     -1961964.307     -5468241.427
10 0 59711 16380.000000 0      4693746.747     -2702615.885     -4538213.470
10 0 59711 16560.000000 0      5172630.031     -3360274.964     -3442383.637
10 0 59711 16740.000000 0      5447691.127     -3905676.492     -2220523.861
10 0 59711 16920.000000 0      5511827.214     -4313274.437      -917213.180
10 0 59711 17100.000000 0      5366264.774     -4562446.377       419790.805
10 0 59711 17280.000000 0      5020433.928     -4638522.397      1741342.164
10 0 59711 17460.000000 0      4491485.697     -4533572.055      2998779.755
10 0 59711 17640.000000 0      3803477.538     -4246901.168      4145788.477
10 0 59711 17820.000000 0      2986271.727     -3785235.621      5140162.420
10 0 59711 18000.000000 0      2074205.122     -3162580.141      5945390.144
10 0 59711 18180.000000 0      1104605.608     -2399764.208      6531997.781
10 0 59711 18360.000000 0       116227.113     -1523702.397      6878603.144
10 0 59711 18540.000000 0      -852322.728      -566407.441      6972656.843
10 0 59711 18720.000000 0     -1764099.608       436206.714      6810861.644
10 0 59711 18900.000000 0     -2585234.860      1445687.739      6399266.191
10 0 59711 19080.000000 0     -3286196.875      2422527.054      5753034.695
10 0 59711 19260.000000 0     -3842862.014      3327712.789      4895901.429
10 0 59711 19440.000000 0     -4237360.988      4124300.606      3859317.745
10 0 59711 19620.000000 0     -4458666.881      4778940.370      2681311.088
10 0 59711 19800.000000 0     -4502896.635      5263293.369      1405086.743
10 0 59711 19980.000000 0     -4373309.730      5555267.538        77421.813
10 0 59711 20160.000000 0     -4080009.634      5640011.186     -1253082.608
10 0 59711 20340.000000 0     -3639356.483      5510613.335     -2537825.266
10 0 59711 20520.000000 0     -3073119.977      5168467.955     -3730013.193
10 0 59711 20700.000000 0     -2407427.283      4623293.672     -4786371.812
10 0 59711 20880.000000 0     -1671567.089      3892817.140     -5668686.414
10 0 59711 21060.000000 0      -896713.344      3002153.467     -6345128.530
10 0 59711 21240.000000 0      -114622.916      1982909.907     -6791338.601
10 0 59711 21420.000000 0       643638.986       872053.719     -6991233.799
10 0 59711 21600.000000 0      1348899.162      -289409.505     -6937539.185
10 0 59711 21780.000000 0      1974970.557     -1457912.459     -6632035.819
10 0 59711 21960.000000 0      2499604.820     -2588914.585     -6085521.571
10 0 59711 22140.000000 0      2905281.386     -3638560.807     -5317490.449
10 0 59711 22320.000000 0      3179810.725     -4565374.852     -4355519.925
10 0 59711 22500.000000 0      3316721.467     -5331916.407     -3234357.828
10 0 59711 22680.000000 0      3315416.066     -5906340.439     -1994736.091
10 0 59711 22860.000000 0      3181081.709     -6263789.473      -681922.905
10 0 59711 23040.000000 0      2924349.391     -6387535.272       655941.914
10 0 59711 23220.000000 0      2560708.262     -6269797.983      1969659.399
10 0 59711 23400.000000 0      2109705.272     -5912192.150      3210849.987
10 0 59711 23580.000000 0      1593968.434     -5325763.551      4333805.244
10 0 59711 23760.000000 0      1038110.928     -4530624.451      5297220.701
10 0 59711 23940.000000 0       467576.468     -3555209.817      6065742.742
10 0 59711 24120.000000 0       -92518.014     -2435187.826      6611264.172
10 0 59711 24300.000000 0      -618481.640     -1212090.678      6913919.418
10 0 59711 24480.000000 0     -1089044.333        68267.201      6962770.738
10 0 59711 24660.000000 0     -1486212.463      1357533.134      6756174.024
10 0 59711 24840.000000 0     -1795954.861      2606657.555      6301814.451
10 0 59711 25020.000000 0     -2008697.357      3767769.202      5616418.690
10 0 59711 25200.000000 0     -2119611.424      4796023.434      4725152.334
10 0 59711 25380.000000 0     -2128689.579      5651361.644      3660715.716
10 0 59711 25560.000000 0     -2040604.353      6300110.437      2462153.915
10 0 59711 25740.000000 0     -1864357.654      6716345.927      1173418.150
10 0 59711 25920.000000 0     -1612733.909      6882959.993      -158268.820
10 0 59711 26100.000000 0     -1301584.983      6792374.486     -1484178.351
10 0 59711 26280.000000 0      -948983.511      6446862.569     -2755904.487
10 0 59711 26460.000000 0      -574290.847      5858449.434     -3927159.732
10 0 59711 26640.000000 0      -197194.409      5048426.754     -4955453.418
10 0 59711 26820.000000 0       163240.141      4046515.521     -5803601.861
10 0 59711 27000.000000 0       489459.464      2889720.202     -6441019.223
10 0 59711 27180.000000 0       766215.058      1620928.524     -6844751.821
10 0 59711 27360.000000 0       981227.020       287323.174     -7000237.166
10 0 59711 27540.000000 0      1125697.976     -1061341.819     -6901785.339
10 0 59711 27720.000000 0      1194660.977     -2374550.262     -6552774.336
99
